2024-105B               
1 59918U 24105B   24154.48149966  .00003895  00000+0  24642-3 0  9992
2 59918  97.6032 160.9229 0013188 282.5418  77.4335 15.09525437   382
2024-105C               
1 59919U 24105C   24154.48160753  .00004597  00000+0  29057-3 0  9995
2 59919  97.5994 160.9213 0013491 280.6230  79.3479 15.09460192   386
2024-105D               
1 59920U 24105D   24154.48174321  .00005091  00000+0  32210-3 0  9998
2 59920  97.6060 160.9233 0013359 279.1648  80.8070 15.09378650   385
2024-105E               
1 59921U 24105E   24154.41544823  .00004411  00000+0  27966-3 0  9997
2 59921  97.5997 160.8555 0013342 279.3949  80.5771 15.09377342   379
